start=new Date('2021-12-28T00:00:00.000Z').valueOf();
sats=[{"RCS_SIZE":"LARGE","ECCENTRICITY":"0.00011660","TIME_SYSTEM":"UTC","BSTAR":"0.00009976900000","MEAN_MOTION_DDOT":"0.0000000000000","ARG_OF_PERICENTER":"89.9125","NORAD_CAT_ID":"47400","SEMIMAJOR_AXIS":"6925.364","MEAN_ANOMALY":"270.1998","EPOCH":"2021-12-27T16:50:55.983840","OBJECT_TYPE":"PAYLOAD","PERIAPSIS":"546.422","TLE_LINE1":"1 47400U 21005BD  21361.70203685  .00001205  00000-0  99769-4 0  9999","RA_OF_ASC_NODE":"63.4566","REV_AT_EPOCH":"5254","COUNTRY_CODE":"US","CENTER_NAME":"EARTH","INCLINATION":"53.0537","APOAPSIS":"548.037","EPHEMERIS_TYPE":"0","OBJECT_NAME":"STARLINK-2122","OBJECT_ID":"2021-005BD","MEAN_MOTION":"15.06394915","DECAY_DATE":null,"MEAN_ELEMENT_THEORY":"SGP4","REF_FRAME":"TEME","FILE":"3253114","PERIOD":"95.592","CLASSIFICATION_TYPE":"U","SITE":"AFETR","ELEMENT_SET_NO":"999","MEAN_MOTION_DOT":"0.00001205","TLE_LINE2":"2 47400  53.0537  63.4566 0001166  89.9125 270.1998 15.06394915 52543","LAUNCH_DATE":"2021-01-20","GP_ID":"192603987"},{"LAUNCH_DATE":"2021-01-20","GP_ID":"192604235","PERIOD":"95.593","CLASSIFICATION_TYPE":"U","SITE":"AFETR","ELEMENT_SET_NO":"999","MEAN_MOTION_DOT":"0.00001002","TLE_LINE2":"2 47401  53.0550  73.3919 0001302  79.9004 280.2132 15.06389850 52418","MEAN_ELEMENT_THEORY":"SGP4","DECAY_DATE":null,"REF_FRAME":"TEME","FILE":"3253114","OBJECT_NAME":"STARLINK-2123","MEAN_MOTION":"15.06389850","OBJECT_ID":"2021-005BE","TLE_LINE1":"1 47401U 21005BE  21361.72049233  .00001002  00000-0  86143-4 0  9996","REV_AT_EPOCH":"5241","RA_OF_ASC_NODE":"73.3919","COUNTRY_CODE":"US","CENTER_NAME":"EARTH","INCLINATION":"53.0550","EPHEMERIS_TYPE":"0","APOAPSIS":"548.146","SEMIMAJOR_AXIS":"6925.380","NORAD_CAT_ID":"47401","MEAN_ANOMALY":"280.2132","EPOCH":"2021-12-27T17:17:30.537312","OBJECT_TYPE":"PAYLOAD","PERIAPSIS":"546.343","RCS_SIZE":"LARGE","ECCENTRICITY":"0.00013020","TIME_SYSTEM":"UTC","BSTAR":"0.00008614300000","MEAN_MOTION_DDOT":"0.0000000000000","ARG_OF_PERICENTER":"79.9004"},{"OBJECT_NAME":"STARLINK-2124","OBJECT_ID":"2021-005BF","MEAN_MOTION":"15.06400551","TLE_LINE1":"1 47402U 21005BF  21361.60622468  .00004609  00000-0  32811-3 0  9999","RA_OF_ASC_NODE":"73.8997","REV_AT_EPOCH":"5239","APOAPSIS":"548.005","EPHEMERIS_TYPE":"0","INCLINATION":"53.0536","COUNTRY_CODE":"US","CENTER_NAME":"EARTH","SEMIMAJOR_AXIS":"6925.347","MEAN_ANOMALY":"272.2038","NORAD_CAT_ID":"47402","OBJECT_TYPE":"PAYLOAD","PERIAPSIS":"546.419","EPOCH":"2021-12-27T14:32:57.812352","TIME_SYSTEM":"UTC","BSTAR":"0.00032811000000","ECCENTRICITY":"0.00011450","RCS_SIZE":"LARGE","ARG_OF_PERICENTER":"87.9082","MEAN_MOTION_DDOT":"0.0000000000000","LAUNCH_DATE":"2021-01-20","GP_ID":"192604983","ELEMENT_SET_NO":"999","SITE":"AFETR","PERIOD":"95.592","CLASSIFICATION_TYPE":"U","TLE_LINE2":"2 47402  53.0536  73.8997 0001145  87.9082 272.2038 15.06400551 52399","MEAN_MOTION_DOT":"0.00004609","FILE":"3253114","REF_FRAME":"TEME","DECAY_DATE":null,"MEAN_ELEMENT_THEORY":"SGP4"},{"OBJECT_NAME":"STARLINK-2127","MEAN_MOTION":"15.06398886","OBJECT_ID":"2021-005BG","RA_OF_ASC_NODE":"73.8768","TLE_LINE1":"1 47403U 21005BG  21361.61359620  .00002640  00000-0  19604-3 0  9996","REV_AT_EPOCH":"5239","EPHEMERIS_TYPE":"0","APOAPSIS":"548.101","CENTER_NAME":"EARTH","COUNTRY_CODE":"US","INCLINATION":"53.0534","SEMIMAJOR_AXIS":"6925.352","MEAN_ANOMALY":"265.0508","NORAD_CAT_ID":"47403","PERIAPSIS":"546.333","OBJECT_TYPE":"PAYLOAD","EPOCH":"2021-12-27T14:43:34.711680","BSTAR":"0.00019604000000","TIME_SYSTEM":"UTC","RCS_SIZE":"LARGE","ECCENTRICITY":"0.00012770","MEAN_MOTION_DDOT":"0.0000000000000","ARG_OF_PERICENTER":"95.0627","LAUNCH_DATE":"2021-01-20","GP_ID":"192603239","ELEMENT_SET_NO":"999","SITE":"AFETR","CLASSIFICATION_TYPE":"U","PERIOD":"95.592","TLE_LINE2":"2 47403  53.0534  73.8768 0001277  95.0627 265.0508 15.06398886 52394","MEAN_MOTION_DOT":"0.00002640","FILE":"3253114","DECAY_DATE":null,"MEAN_ELEMENT_THEORY":"SGP4","REF_FRAME":"TEME"},{"OBJECT_NAME":"STARLINK-2128","OBJECT_ID":"2021-005BH","MEAN_MOTION":"15.06393076","RA_OF_ASC_NODE":"73.8927","TLE_LINE1":"1 47404U 21005BH  21361.60991806  .00002812  00000-0  20763-3 0  9993","REV_AT_EPOCH":"5239","APOAPSIS":"548.221","EPHEMERIS_TYPE":"0","INCLINATION":"53.0559","COUNTRY_CODE":"US","CENTER_NAME":"EARTH","MEAN_ANOMALY":"278.5528","SEMIMAJOR_AXIS":"6925.370","NORAD_CAT_ID":"47404","OBJECT_TYPE":"PAYLOAD","PERIAPSIS":"546.249","EPOCH":"2021-12-27T14:38:16.920384","TIME_SYSTEM":"UTC","BSTAR":"0.00020763000000","ECCENTRICITY":"0.00014240","RCS_SIZE":"LARGE","MEAN_MOTION_DDOT":"0.0000000000000","ARG_OF_PERICENTER":"81.5622","LAUNCH_DATE":"2021-01-20","GP_ID":"192603487","ELEMENT_SET_NO":"999","SITE":"AFETR","CLASSIFICATION_TYPE":"U","PERIOD":"95.593","TLE_LINE2":"2 47404  53.0559  73.8927 0001424  81.5622 278.5528 15.06393076 52395","MEAN_MOTION_DOT":"0.00002812","FILE":"3253114","REF_FRAME":"TEME","MEAN_ELEMENT_THEORY":"SGP4","DECAY_DATE":null},{"FILE":"3253114","MEAN_ELEMENT_THEORY":"SGP4","DECAY_DATE":null,"REF_FRAME":"TEME","TLE_LINE2":"2 47405  53.0466 103.0915 0001344  78.8208 281.2932 15.06387422 51999","MEAN_MOTION_DOT":"-0.00000352","ELEMENT_SET_NO":"999","SITE":"AFETR","CLASSIFICATION_TYPE":"U","PERIOD":"95.593","GP_ID":"192604736","LAUNCH_DATE":"2021-01-20","MEAN_MOTION_DDOT":"0.0000000000000","ARG_OF_PERICENTER":"78.8208","BSTAR":"-0.00000474140000","TIME_SYSTEM":"UTC","RCS_SIZE":"LARGE","ECCENTRICITY":"0.00013440","OBJECT_TYPE":"PAYLOAD","PERIAPSIS":"546.321","EPOCH":"2021-12-27T18:59:40.761600","SEMIMAJOR_AXIS":"6925.387","NORAD_CAT_ID":"47405","MEAN_ANOMALY":"281.2932","APOAPSIS":"548.183","EPHEMERIS_TYPE":"0","CENTER_NAME":"EARTH","COUNTRY_CODE":"US","INCLINATION":"53.0466","REV_AT_EPOCH":"5199","TLE_LINE1":"1 47405U 21005BJ  21361.79144400 -.00000352  00000-0 -47414-5 0  9997","RA_OF_ASC_NODE":"103.0915","OBJECT_ID":"2021-005BJ","MEAN_MOTION":"15.06387422","OBJECT_NAME":"STARLINK-2130"},{"REV_AT_EPOCH":"5240","TLE_LINE1":"1 47406U 21005BK  21361.68731751  .00000506  00000-0  52873-4 0  9990","RA_OF_ASC_NODE":"73.5288","APOAPSIS":"548.087","EPHEMERIS_TYPE":"0","COUNTRY_CODE":"US","CENTER_NAME":"EARTH","INCLINATION":"53.0551","OBJECT_NAME":"STARLINK-2133","MEAN_MOTION":"15.06395237","OBJECT_ID":"2021-005BK","BSTAR":"0.00005287300000","TIME_SYSTEM":"UTC","RCS_SIZE":"LARGE","ECCENTRICITY":"0.00012400","ARG_OF_PERICENTER":"86.0069","MEAN_MOTION_DDOT":"0.0000000000000","MEAN_ANOMALY":"274.1062","SEMIMAJOR_AXIS":"6925.363","NORAD_CAT_ID":"47406","OBJECT_TYPE":"PAYLOAD","PERIAPSIS":"546.369","EPOCH":"2021-12-27T16:29:44.232864","SITE":"AFETR","ELEMENT_SET_NO":"999","CLASSIFICATION_TYPE":"U","PERIOD":"95.592","TLE_LINE2":"2 47406  53.0551  73.5288 0001240  86.0069 274.1062 15.06395237 52405","MEAN_MOTION_DOT":"0.00000506","LAUNCH_DATE":"2021-01-20","GP_ID":"192604483","FILE":"3253114","MEAN_ELEMENT_THEORY":"SGP4","DECAY_DATE":null,"REF_FRAME":"TEME"},{"LAUNCH_DATE":"2021-01-20","GP_ID":"192603740","SITE":"AFETR","ELEMENT_SET_NO":"999","PERIOD":"95.593","CLASSIFICATION_TYPE":"U","TLE_LINE2":"2 47407  53.0547  73.5143 0001294  83.5791 276.5345 15.06390524 52408","MEAN_MOTION_DOT":"0.00000282","FILE":"3253114","MEAN_ELEMENT_THEORY":"SGP4","DECAY_DATE":null,"REF_FRAME":"TEME","OBJECT_NAME":"STARLINK-2134","MEAN_MOTION":"15.06390524","OBJECT_ID":"2021-005BL","TLE_LINE1":"1 47407U 21005BL  21361.69468423  .00000282  00000-0  37810-4 0  9990","REV_AT_EPOCH":"5240","RA_OF_ASC_NODE":"73.5143","EPHEMERIS_TYPE":"0","APOAPSIS":"548.139","COUNTRY_CODE":"US","CENTER_NAME":"EARTH","INCLINATION":"53.0547","NORAD_CAT_ID":"47407","SEMIMAJOR_AXIS":"6925.378","MEAN_ANOMALY":"276.5345","OBJECT_TYPE":"PAYLOAD","PERIAPSIS":"546.346","EPOCH":"2021-12-27T16:40:20.717472","BSTAR":"0.00003781000000","TIME_SYSTEM":"UTC","RCS_SIZE":"LARGE","ECCENTRICITY":"0.00012940","MEAN_MOTION_DDOT":"0.0000000000000","ARG_OF_PERICENTER":"83.5791"},{"EPOCH":"2021-12-27T17:33:25.657344","PERIAPSIS":"546.325","OBJECT_TYPE":"PAYLOAD","SEMIMAJOR_AXIS":"6925.361","NORAD_CAT_ID":"47408","MEAN_ANOMALY":"274.3545","MEAN_MOTION_DDOT":"0.0000000000000","ARG_OF_PERICENTER":"85.7593","ECCENTRICITY":"0.00013000","RCS_SIZE":"LARGE","TIME_SYSTEM":"UTC","BSTAR":"-0.00001037600000","OBJECT_ID":"2021-005BM","MEAN_MOTION":"15.06396019","OBJECT_NAME":"STARLINK-2135","INCLINATION":"53.0548","CENTER_NAME":"EARTH","COUNTRY_CODE":"US","EPHEMERIS_TYPE":"0","APOAPSIS":"548.126","TLE_LINE1":"1 47408U 21005BM  21361.73154696 -.00000436  00000-0 -10376-4 0  9991","RA_OF_ASC_NODE":"73.3311","REV_AT_EPOCH":"5241","REF_FRAME":"TEME","DECAY_DATE":null,"MEAN_ELEMENT_THEORY":"SGP4","FILE":"3253114","GP_ID":"192603988","LAUNCH_DATE":"2021-01-20","MEAN_MOTION_DOT":"-0.00000436","TLE_LINE2":"2 47408  53.0548  73.3311 0001300  85.7593 274.3545 15.06396019 52411","PERIOD":"95.592","CLASSIFICATION_TYPE":"U","ELEMENT_SET_NO":"999","SITE":"AFETR"},{"OBJECT_ID":"2021-006B","MEAN_MOTION":"15.89632780","OBJECT_NAME":"STARLINK-2200","APOAPSIS":"306.175","EPHEMERIS_TYPE":"0","INCLINATION":"97.4745","CENTER_NAME":"EARTH","COUNTRY_CODE":"US","TLE_LINE1":"1 47414U 21006B   21361.91667824  .00026933  25701-5  94653-4 0  9999","RA_OF_ASC_NODE":"65.5433","REV_AT_EPOCH":"5167","OBJECT_TYPE":"PAYLOAD","PERIAPSIS":"300.453","EPOCH":"2021-12-27T22:00:00.999936","SEMIMAJOR_AXIS":"6681.449","NORAD_CAT_ID":"47414","MEAN_ANOMALY":"126.9755","MEAN_MOTION_DDOT":"0.0000025701000","ARG_OF_PERICENTER":"205.6050","TIME_SYSTEM":"UTC","BSTAR":"0.00009465300000","ECCENTRICITY":"0.00042820","RCS_SIZE":"LARGE","GP_ID":"192572601","LAUNCH_DATE":"2021-01-24","TLE_LINE2":"2 47414  97.4745  65.5433 0004282 205.6050 126.9755 15.89632780 51671","MEAN_MOTION_DOT":"0.00026933","SITE":"AFETR","ELEMENT_SET_NO":"999","PERIOD":"90.587","CLASSIFICATION_TYPE":"U","FILE":"3252696","REF_FRAME":"TEME","DECAY_DATE":null,"MEAN_ELEMENT_THEORY":"SGP4"}];
